{
  "norad_id": 65418,
  "name": "STARLINK-34997",
  "history": [
    {
      "epoch": "2026-03-28T13:31:26.531328",
      "apogee_km": 476.1093557223212,
      "perigee_km": 474.300073509663,
      "latitude_deg": 28.783573611155543,
      "longitude_deg": 55.89614592003636,
      "semi_major_axis_km": 6853.341714615992,
      "eccentricity": 0.000132,
      "inclination_deg": 53.1601,
      "raan_deg": 144.7039,
      "arg_perigee_deg": 79.3607,
      "mean_anomaly_deg": 280.7542,
      "mean_motion_rev_day": 15.30203468
    }
  ]
}